[{"OBJECT_NAME":"ICEYE-X7","OBJECT_ID":"2020-068L","EPOCH":"2026-03-09T22:52:28.702272","MEAN_MOTION":15.29152508,"ECCENTRICITY":0.00068409,"INCLINATION":97.7412,"RA_OF_ASC_NODE":31.2076,"ARG_OF_PERICENTER":332.3045,"MEAN_ANOMALY":27.7829,"EPHEMERIS_TYPE":0,"CLASSIFICATION_TYPE":"U","NORAD_CAT_ID":46496,"ELEMENT_SET_NO":999,"REV_AT_EPOCH":29961,"BSTAR":0.0005654802,"MEAN_MOTION_DOT":0.00015947,"MEAN_MOTION_DDOT":0},{"OBJECT_NAME":"STARLINK-32196","OBJECT_ID":"2024-144F","EPOCH":"2026-03-09T17:26:05.318880","MEAN_MOTION":15.30184447,"ECCENTRICITY":0.00011849,"INCLINATION":53.1607,"RA_OF_ASC_NODE":217.0433,"ARG_OF_PERICENTER":85.0601,"MEAN_ANOMALY":275.0535,"EPHEMERIS_TYPE":0,"CLASSIFICATION_TYPE":"U","NORAD_CAT_ID":60430,"ELEMENT_SET_NO":999,"REV_AT_EPOCH":8931,"BSTAR":-2.484459e-6,"MEAN_MOTION_DOT":-4.33e-6,"MEAN_MOTION_DDOT":0}]
